[{"OBJECT_NAME":"STARLINK-32929","OBJECT_ID":"2025-032S","EPOCH":"2026-03-09T03:19:00.410880","MEAN_MOTION":15.27578336,"ECCENTRICITY":0.00016098,"INCLINATION":43.0033,"RA_OF_ASC_NODE":339.3401,"ARG_OF_PERICENTER":273.9739,"MEAN_ANOMALY":86.0929,"EPHEMERIS_TYPE":0,"CLASSIFICATION_TYPE":"U","NORAD_CAT_ID":63021,"ELEMENT_SET_NO":999,"REV_AT_EPOCH":6053,"BSTAR":0.0011722462,"MEAN_MOTION_DOT":0.00032135,"MEAN_MOTION_DDOT":0},{"OBJECT_NAME":"TRANSPORTER-1 OBJECT Z","OBJECT_ID":"2021-006Z","EPOCH":"2026-03-09T22:55:57.522432","MEAN_MOTION":15.30965056,"ECCENTRICITY":0.00100878,"INCLINATION":97.2377,"RA_OF_ASC_NODE":113.4736,"ARG_OF_PERICENTER":179.6869,"MEAN_ANOMALY":180.438,"EPHEMERIS_TYPE":0,"CLASSIFICATION_TYPE":"U","NORAD_CAT_ID":47436,"ELEMENT_SET_NO":999,"REV_AT_EPOCH":28420,"BSTAR":0.00024088983,"MEAN_MOTION_DOT":7.143e-5,"MEAN_MOTION_DDOT":0}]
